[{"OBJECT_NAME":"BANDWAGON-2 OBJECT D","OBJECT_ID":"2024-247D","EPOCH":"2026-03-09T12:32:33.670752","MEAN_MOTION":15.29076102,"ECCENTRICITY":0.00034883,"INCLINATION":44.9954,"RA_OF_ASC_NODE":115.671,"ARG_OF_PERICENTER":351.1453,"MEAN_ANOMALY":8.9368,"EPHEMERIS_TYPE":0,"CLASSIFICATION_TYPE":"U","NORAD_CAT_ID":62380,"ELEMENT_SET_NO":999,"REV_AT_EPOCH":6773,"BSTAR":0.00040119131,"MEAN_MOTION_DOT":0.00011259,"MEAN_MOTION_DDOT":0},{"OBJECT_NAME":"STARLINK-36552","OBJECT_ID":"2026-012L","EPOCH":"2026-03-09T22:49:41.343744","MEAN_MOTION":15.27600712,"ECCENTRICITY":3.977e-5,"INCLINATION":42.9977,"RA_OF_ASC_NODE":312.7612,"ARG_OF_PERICENTER":236.0011,"MEAN_ANOMALY":124.0803,"EPHEMERIS_TYPE":0,"CLASSIFICATION_TYPE":"U","NORAD_CAT_ID":67503,"ELEMENT_SET_NO":999,"REV_AT_EPOCH":780,"BSTAR":0.0010329756,"MEAN_MOTION_DOT":0.0002829,"MEAN_MOTION_DDOT":0}]
